[Satellite]
VERSION=1.1
NAME=TECHEDSAT 5
NICKNAME=TECHEDSAT 5
TLE1=1 42066U 98067LB  17186.19544413  .00236350  00000-0  10365-2 0  9998
TLE2=2 42066  51.6298 297.5418 0011801 332.1086  27.9283 15.83315912 18661
